[{"OBJECT_NAME":"YAOGAN-36 02A","OBJECT_ID":"2022-133A","EPOCH":"2026-03-10T00:04:36.049728","MEAN_MOTION":15.23118612,"ECCENTRICITY":0.00301484,"INCLINATION":35.0077,"RA_OF_ASC_NODE":23.5078,"ARG_OF_PERICENTER":29.898,"MEAN_ANOMALY":330.345,"EPHEMERIS_TYPE":0,"CLASSIFICATION_TYPE":"U","NORAD_CAT_ID":54042,"ELEMENT_SET_NO":999,"REV_AT_EPOCH":18962,"BSTAR":0.00070143583,"MEAN_MOTION_DOT":0.00017174,"MEAN_MOTION_DDOT":0},{"OBJECT_NAME":"STARLINK-35616","OBJECT_ID":"2025-245X","EPOCH":"2026-03-09T19:35:23.730432","MEAN_MOTION":15.30212716,"ECCENTRICITY":0.00014161,"INCLINATION":53.1574,"RA_OF_ASC_NODE":283.4641,"ARG_OF_PERICENTER":133.3081,"MEAN_ANOMALY":226.8038,"EPHEMERIS_TYPE":0,"CLASSIFICATION_TYPE":"U","NORAD_CAT_ID":66255,"ELEMENT_SET_NO":999,"REV_AT_EPOCH":2127,"BSTAR":0.00087700546,"MEAN_MOTION_DOT":0.00025715,"MEAN_MOTION_DDOT":0}]
